{
    "links": {
        "self": "http://www.neowsapp.com/rest/v1/neo/54097969?api_key=iIulBulltgU6a56xZRHN4H3l9WmuAYTsLGpBGhQ2"
    },
    "id": "54097969",
    "neo_reference_id": "54097969",
    "name": "(2020 XR)",
    "designation": "2020 XR",
    "nasa_jpl_url": "http://ssd.jpl.nasa.gov/sbdb.cgi?sstr=54097969",
    "absolute_magnitude_h": 19.68,
    "estimated_diameter": {
        "kilometers": {
            "estimated_diameter_min": 0.3080030213,
            "estimated_diameter_max": 0.6887156928
        },
        "meters": {
            "estimated_diameter_min": 308.003021266,
            "estimated_diameter_max": 688.7156928262
        },
        "miles": {
            "estimated_diameter_min": 0.1913841453,
            "estimated_diameter_max": 0.4279479588
        },
        "feet": {
            "estimated_diameter_min": 1010.5086322905,
            "estimated_diameter_max": 2259.5659936518
        }
    },
    "is_potentially_hazardous_asteroid": true,
    "close_approach_data": [
        {
            "close_approach_date": "2021-01-02",
            "close_approach_date_full": "2021-Jan-02 04:17",
            "epoch_date_close_approach": 1609561020000,
            "relative_velocity": {
                "kilometers_per_second": "19.991002047",
                "kilometers_per_hour": "71967.6073693375",
                "miles_per_hour": "44717.8724790197"
            },
            "miss_distance": {
                "astronomical": "0.3294021294",
                "lunar": "128.1374283366",
                "kilometers": "49277856.931704378",
                "miles": "30619840.4364932964"
            },
            "orbiting_body": "Earth"
        }
    ],
    "orbital_data": {
        "orbit_id": "2",
        "orbit_determination_date": "2020-12-08 05:24:05",
        "first_observation_date": "2020-12-04",
        "last_observation_date": "2020-12-08",
        "data_arc_in_days": 4,
        "observations_used": 42,
        "orbit_uncertainty": "9",
        "minimum_orbit_intersection": ".000661906",
        "jupiter_tisserand_invariant": "3.122",
        "epoch_osculation": "2459188.5",
        "eccentricity": ".6164160759364065",
        "semi_major_axis": "2.529634265009344",
        "inclination": "13.98494254605099",
        "ascending_node_longitude": "249.6553498311684",
        "orbital_period": "1469.552242666083",
        "perihelion_distance": ".9703270378180084",
        "perihelion_argument": "163.0703528811528",
        "aphelion_distance": "4.088941492200679",
        "perihelion_time": "2459192.164149167141",
        "mean_anomaly": "359.1023839358187",
        "mean_motion": ".2449725770530503",
        "equinox": "J2000",
        "orbit_class": {
            "orbit_class_type": "APO",
            "orbit_class_description": "Near-Earth asteroid orbits which cross the Earth’s orbit similar to that of 1862 Apollo",
            "orbit_class_range": "a (semi-major axis) > 1.0 AU; q (perihelion) < 1.017 AU"
        }
    },
    "is_sentry_object": false
}